NORAD_CAT_ID,OBJECT_NAME,OBJECT_TYPE,EPOCH,MEAN_MOTION,ECCENTRICITY,INCLINATION,RA_OF_ASC_NODE,ARG_OF_PERICENTER,MEAN_ANOMALY,BSTAR,MEAN_MOTION_DOT,MEAN_MOTION_DDOT,TLE_LINE0,TLE_LINE1,TLE_LINE2,SEMIMAJOR_AXIS,PERIOD,APOGEE,PERIGEE,DECAYED
53135.0,STARLINK-4023,PAYLOAD,2022-12-26 09:53:40,15.08845533,0.0003003999999999,53.2186,23.2234,23.6062,336.5067,9.763e-05,1.266e-05,0.0,0 STARLINK-4023,1 53135U 22083D   22360.41227034  .00001266  00000-0  97630-4 0  9992,2 53135  53.2186  23.2234 0003004  23.6062 336.5067 15.08845533 25320,6917.863,95.437,541.807,537.65,0.0
53135.0,STARLINK-4023,PAYLOAD,2022-12-26 22:36:45,15.08841348,0.0002995,53.2182,20.8435,26.015,334.0992,4.1093e-05,3.65e-06,0.0,0 STARLINK-4023,1 53135U 22083D   22360.94219433  .00000365  00000-0  41093-4 0  9995,2 53135  53.2182  20.8435 0002995  26.0150 334.0992 15.08841348 25404,6917.876,95.437,541.813,537.669,0.0
53135.0,STARLINK-4023,PAYLOAD,2022-12-27 08:09:03,15.08851459,0.0003047,53.2169,19.0581,24.5834,335.5303,0.00025435,3.763e-05,0.0,0 STARLINK-4023,1 53135U 22083D   22361.33962755  .00003763  00000-0  25435-3 0  9997,2 53135  53.2169  19.0581 0003047  24.5834 335.5303 15.08851459 25464,6917.845,95.437,541.818,537.602,0.0
53135.0,STARLINK-4023,PAYLOAD,2022-12-27 11:19:50,15.08853336,0.0003165,53.217,18.4642,24.5767,335.5376,0.00028698,4.284e-05,0.0,0 STARLINK-4023,1 53135U 22083D   22361.47210709  .00004284  00000-0  28698-3 0  9990,2 53135  53.2170  18.4642 0003165  24.5767 335.5376 15.08853336 25841,6917.84,95.437,541.894,537.515,0.0
53135.0,STARLINK-4023,PAYLOAD,2022-12-27 22:27:31,15.08861897,0.0003151999999999,53.2176,16.3844,26.1583,333.9568,0.00039287,5.974e-05,0.0,0 STARLINK-4023,1 53135U 22083D   22361.93578078  .00005974  00000-0  39287-3 0  9990,2 53135  53.2176  16.3844 0003152  26.1583 333.9568 15.08861897 25912,6917.813,95.436,541.859,537.498,0.0
53135.0,STARLINK-4023,PAYLOAD,2022-12-29 01:29:05,15.08834197,0.0003118,53.2175,11.3279,22.4818,337.631,-0.00019574,-3.402e-05,0.0,0 STARLINK-4023,1 53135U 22083D   22363.06187008 -.00003402  00000-0 -19574-3 0  9998,2 53135  53.2175  11.3279 0003118  22.4818 337.6310 15.08834197 25728,6917.898,95.438,541.92,537.606,0.0
53135.0,STARLINK-4023,PAYLOAD,2022-12-29 11:01:24,15.0882562,0.0003043,53.2186,9.5449,23.3285,336.7845,-0.00025977,-4.419e-05,0.0,0 STARLINK-4023,1 53135U 22083D   22363.45931518 -.00004419  00000-0 -25977-3 0  9997,2 53135  53.2186   9.5449 0003043  23.3285 336.7845 15.08825620 26144,6917.924,95.438,541.894,537.684,0.0
53135.0,STARLINK-4023,PAYLOAD,2022-12-30 09:16:49,15.08840742,0.0003033,53.2182,5.3817,23.6686,336.4445,0.00031103,4.665e-05,0.0,0 STARLINK-4023,1 53135U 22083D   22364.38668090  .00004665  00000-0  31103-3 0  9991,2 53135  53.2182   5.3817 0003033  23.6686 336.4445 15.08840742 25920,6917.878000000002,95.438,541.841,537.645,0.0
53135.0,STARLINK-4023,PAYLOAD,2022-12-30 23:35:17,15.0886929,0.0003091,53.2183,2.7055,23.7715,336.3419,0.0011541,0.00018143,0.0,0 STARLINK-4023,1 53135U 22083D   22364.98283597  .00018143  00000-0  11541-2 0  9991,2 53135  53.2183   2.7055 0003091  23.7715 336.3419 15.08869290 26014,6917.791,95.436,541.794,537.518,0.0
53135.0,STARLINK-4023,PAYLOAD,2022-12-31 07:32:12,15.08876051,0.0003095,53.2182,1.2188,24.7265,335.3875,0.00086078,0.00013452,0.0,0 STARLINK-4023,1 53135U 22083D   22365.31402903  .00013452  00000-0  86078-3 0  9999,2 53135  53.2182   1.2188 0003095  24.7265 335.3875 15.08876051 26422,6917.77,95.435,541.776,537.494,0.0
53135.0,STARLINK-4023,PAYLOAD,2022-12-31 18:39:53,15.08859625,0.0003561,53.2172,359.1401,26.9427,333.175,-2.4992e-05,-6.87e-06,0.0,0 STARLINK-4023,1 53135U 22083D   22365.77770624 -.00000687  00000-0 -24992-4 0  9993,2 53135  53.2172 359.1401 0003561  26.9427 333.1750 15.08859625 26499,6917.82,95.436,542.149,537.222,0.0
53135.0,STARLINK-4023,PAYLOAD,2023-01-01 05:47:35,15.08845838,0.0003536,53.2175,357.0576,28.7949,331.3238,-0.00014149,-2.541e-05,0.0,0 STARLINK-4023,1 53135U 22083D   23001.24138835 -.00002541  00000-0 -14149-3 0  9998,2 53135  53.2175 357.0576 0003536  28.7949 331.3238 15.08845838 26204,6917.863,95.437,542.174,537.281,0.0
53135.0,STARLINK-4023,PAYLOAD,2023-01-01 08:58:22,15.08844663,0.0003187,53.2192,356.4609,23.7298,336.384,-2.159e-06,-3.23e-06,0.0,0 STARLINK-4023,1 53135U 22083D   23001.37387091 -.00000323  00000-0 -21590-5 0  9998,2 53135  53.2192 356.4609 0003187  23.7298 336.3840 15.08844663 26587,6917.866,95.437,541.936,537.526,0.0
53135.0,STARLINK-4023,PAYLOAD,2023-01-01 16:55:18,15.08834148,0.0003043999999999,53.2184,354.9742,22.7759,337.3367,-0.00019306,-3.3600000000000004e-05,0.0,0 STARLINK-4023,1 53135U 22083D   23001.70507691 -.00003360  00000-0 -19306-3 0  9999,2 53135  53.2184 354.9742 0003044  22.7759 337.3367 15.08834148 26270,6917.898,95.438,541.869,537.6569999999998,0.0
53135.0,STARLINK-4023,PAYLOAD,2023-01-02 02:27:37,15.08843338,0.0003137,53.2187,353.1898,23.1485,336.9648,-9.2804e-05,-1.766e-05,0.0,0 STARLINK-4023,1 53135U 22083D   23002.10251283 -.00001766  00000-0 -92804-4 0  9990,2 53135  53.2187 353.1898 0003137  23.1485 336.9648 15.08843338 26335,6917.87,95.437,541.905,537.565,0.0
53135.0,STARLINK-4023,PAYLOAD,2023-01-02 10:24:33,15.08837849,0.000368,53.2177,351.7053,25.5433,334.574,6.4354e-05,7.35e-06,0.0,0 STARLINK-4023,1 53135U 22083D   23002.43371739  .00000735  00000-0  64354-4 0  9997,2 53135  53.2177 351.7053 0003680  25.5433 334.5740 15.08837849 26745,6917.887,95.438,542.298,537.206,0.0
53135.0,STARLINK-4023,PAYLOAD,2023-01-02 16:46:05,15.08839218,0.0003247,53.2176,350.5145,24.8245,335.2903,0.00014818,2.07e-05,0.0,0 STARLINK-4023,1 53135U 22083D   23002.69867655  .00002070  00000-0  14818-3 0  9995,2 53135  53.2176 350.5145 0003247  24.8245 335.2903 15.08839218 26780,6917.8830000000025,95.438,541.994,537.502,0.0
53135.0,STARLINK-4023,PAYLOAD,2023-01-03 02:18:24,15.08834884,0.0003122,53.2185,348.7301,25.1036,335.0107,0.00011807,1.591e-05,0.0,0 STARLINK-4023,1 53135U 22083D   23003.09612032  .00001591  00000-0  11807-3 0  9999,2 53135  53.2185 348.7301 0003122  25.1036 335.0107 15.08834884 26482,6917.896,95.438,541.9209999999998,537.601,0.0
53135.0,STARLINK-4023,PAYLOAD,2023-01-03 10:15:20,15.08838989,0.0003136,53.2184,347.2433,24.5739,335.5402,0.00029088,4.344e-05,0.0,0 STARLINK-4023,1 53135U 22083D   23003.42732006  .00004344  00000-0  29088-3 0  9999,2 53135  53.2184 347.2433 0003136  24.5739 335.5402 15.08838989 26897,6917.8830000000025,95.438,541.918,537.5790000000002,0.0
53135.0,STARLINK-4023,PAYLOAD,2023-01-04 10:06:07,15.08848261,0.0003232,53.218,342.7828,25.9782,334.1372,0.00017026,2.423e-05,0.0,0 STARLINK-4023,1 53135U 22083D   23004.42091678  .00002423  00000-0  17026-3 0  9998,2 53135  53.2180 342.7828 0003232  25.9782 334.1372 15.08848261 26683,6917.855,95.437,541.956,537.484,0.0
53135.0,STARLINK-4023,PAYLOAD,2023-01-04 14:52:16,15.08849855,0.0003234,53.2181,341.8907,26.2267,333.8889,0.00018064,2.588e-05,0.0,0 STARLINK-4023,1 53135U 22083D   23004.61963536  .00002588  00000-0  18064-3 0  9995,2 53135  53.2181 341.8907 0003234  26.2267 333.8889 15.08849855 27079,6917.85,95.437,541.952,537.4780000000002,0.0
53135.0,STARLINK-4023,PAYLOAD,2023-01-05 09:56:53,15.08865719,0.0003095,53.2182,338.3223,24.6566,335.4573,0.00047051,7.213e-05,0.0,0 STARLINK-4023,1 53135U 22083D   23005.41450507  .00007213  00000-0  47051-3 0  9991,2 53135  53.2182 338.3223 0003095  24.6566 335.4573 15.08865719 26839,6917.802,95.436,541.808,537.526,0.0
53135.0,STARLINK-4023,PAYLOAD,2023-01-05 14:43:02,15.08864117,0.00031,53.2182,337.4301,25.1021,335.0121,0.0003723,5.646e-05,0.0,0 STARLINK-4023,1 53135U 22083D   23005.61322302  .00005646  00000-0  37230-3 0  9990,2 53135  53.2182 337.4301 0003100  25.1021 335.0121 15.08864117 27225,6917.807,95.436,541.816,537.5269999999998,0.0
53135.0,STARLINK-4023,PAYLOAD,2023-01-06 09:47:40,15.08828306,0.0003085,53.218,333.8624,24.8682,335.2458,-0.00046362,-7.658e-05,0.0,0 STARLINK-4023,1 53135U 22083D   23006.40811019 -.00007658  00000-0 -46362-3 0  9999,2 53135  53.2180 333.8624 0003085  24.8682 335.2458 15.08828306 26989,6917.916,95.438,541.915,537.6469999999998,0.0
53135.0,STARLINK-4023,PAYLOAD,2023-01-07 01:41:32,15.0884006,0.0003112,53.2184,330.8885,24.3722,335.7416,7.6737e-05,9.33e-06,0.0,0 STARLINK-4023,1 53135U 22083D   23007.07051009  .00000933  00000-0  76737-4 0  9995,2 53135  53.2184 330.8885 0003112  24.3722 335.7416 15.08840060 27082,6917.88,95.438,541.898,537.592,0.0
53135.0,STARLINK-4023,PAYLOAD,2023-01-07 03:16:55,15.08847402,0.0003104,53.2183,330.5911,24.9114,335.2027,0.0002972,4.446e-05,0.0,0 STARLINK-4023,1 53135U 22083D   23007.13674871  .00004446  00000-0  29720-3 0  9992,2 53135  53.2183 330.5911 0003104  24.9114 335.2027 15.08847402 27451,6917.858,95.437,541.87,537.575,0.0
53135.0,STARLINK-4023,PAYLOAD,2023-01-07 14:24:37,15.08832217,0.0002979,53.2182,328.5092,23.498,336.6148,0.00029114,4.347e-05,0.0,0 STARLINK-4023,1 53135U 22083D   23007.60043585  .00004347  00000-0  29114-3 0  9993,2 53135  53.2182 328.5092 0002979  23.4980 336.6148 15.08832217 27166,6917.904,95.438,541.83,537.7080000000002,0.0
53135.0,STARLINK-4023,PAYLOAD,2023-01-08 03:07:43,15.08821157,0.0002855,53.2179,326.1306,22.7132,337.3986,4.2613e-06,-2.21e-06,0.0,0 STARLINK-4023,1 53135U 22083D   23008.13036486 -.00000221  00000-0  42613-5 0  9993,2 53135  53.2179 326.1306 0002855  22.7132 337.3986 15.08821157 27246,6917.938,95.439,541.778,537.828,0.0
53135.0,STARLINK-4023,PAYLOAD,2023-01-08 14:15:25,15.08840799,0.0002957,53.2184,324.0498,25.1585,334.955,0.00046732,7.157e-05,0.0,0 STARLINK-4023,1 53135U 22083D   23008.59404571  .00007157  00000-0  46732-3 0  9995,2 53135  53.2184 324.0498 0002957  25.1585 334.9550 15.08840799 27673,6917.8780000000015,95.438,541.789,537.697,0.0
